KUIPER-00186            
1 67140U 25301H   26014.51082801  .00024117  00000+0  68624-3 0  9990
2 67140  51.8699 327.1281 0007058 192.3877 167.6937 15.35978309  5407
KUIPER-00187            
1 67141U 25301J   26014.91667824 -.00161033  00000+0 -55195-2 0  9998
2 67141  51.8743 325.1274 0005835 188.0586 268.3898 15.30284021  5252
KUIPER-00188            
1 67142U 25301K   26014.83841102  .00021836  00000+0  62654-3 0  9996
2 67142  51.8714 325.5768 0006602 197.9576 162.1178 15.35780455  5455
KUIPER-00191            
1 67143U 25301L   26014.57442609  .00014873  00000+0  42781-3 0  9999
2 67143  51.8690 326.8016 0006701 191.3934 168.6902 15.35986755  5441
KUIPER-00196            
1 67144U 25301M   26014.88420583  .00019012  00000+0  53218-3 0  9998
2 67144  51.8733 325.1405 0004031 150.7244 209.3969 15.36659080  5468
KUIPER-00204            
1 67145U 25301N   26014.91667824  .00001839  00000+0  88430-4 0  9997
2 67145  51.8828 325.4632 0004755 126.3481 148.9727 15.24085666  5576
KUIPER-00210            
1 67146U 25301P   26014.85387115  .00020183  00000+0  59593-3 0  9993
2 67146  51.8608 325.6530 0010699 213.4153 146.6158 15.34900042  5624
KUIPER-00221            
1 67147U 25301Q   26014.91667824 -.00032148  00000+0 -10046-2 0  9994
2 67147  51.8734 325.1122 0004978 194.3120 285.7302 15.32405844  4950
